			Type 3
			Mass 1.99658E-005
			Gravity 0.01709
			Class C
			Mesh "planets\sol_0801_proteus"
			RotationPeriod 24
		END

		CELESTIAL
			Name "Triton"

			SemiMajorAxisKM 354760
			Eccentricity 4E-005
			Inclination 156.834
			MeanAnomaly 120
			PeriodD 5.87685
			Radius 1353

			Type 3
			Mass 0.0047732
			Gravity 0.106068
			Class C
			Mesh "planets\sol_0802_triton"
			AtmosColor 0.5 0.5 0.5
			RotationPeriod 24
		END

		CELESTIAL
			Name "Nereid"

			SemiMajorAxis 0.0368548
			Eccentricity 0.7512
			Inclination 7.23
			MeanAnomaly 185
			PeriodD 360.136
			Radius 170

			Type 3
			Mass 9.46811E-006
			Gravity 0.0133271
			Class C
			Mesh "planets\sol_0803_nereid"
			RotationPeriod 24
		END
	END

	CELESTIAL
		Name "Pluto"

		SemiMajorAxis 39.4817
		Eccentricity 0.248808
		Inclination 17.1418
		AscendingNode 110.303
		ArgOfPericenter 113.764
		MeanAnomaly 14.8611
		Period 248.54
		Radius 1137

		Type 2
		Mass 0.003
		Gravity 0.05
		Class C
		Mesh "planets\sol_09_pluto"
		RotationPeriod 153.29
		Obliquity 122.53

		CELESTIAL
			Name "Charon"

			SemiMajorAxisKM 19636
			Eccentricity 0.0076
			MeanAnomaly 120
			PeriodD 6.38708
			Radius 593

			Type 3
			Mass 0.000401865
			Gravity 0.0464879
			Class C
			Mesh "planets\sol_0901_charon"
			RotationPeriod 24
		END
	END

	CELESTIAL
		Name "Ceres"

		SemiMajorAxis 2.766
		Eccentricity 0.0793
		Inclination 10.584
		AscendingNode 80.483
		ArgOfPericenter 74.043
		MeanAnomaly 232.067
		Period 4.60014
		Epoch 1055.5
		Radius 456

		Type 4
		Mass 0.00018273
		Gravity 0.0357479
		Class E
		Mesh "planets\planet_800_ef"
		RotationPeriod 9.075
	END

	CELESTIAL
		Name "Pallas"

		SemiMajorAxis 2.7733
		Eccentricity 0.23
		Inclination 34.846
		AscendingNode 173.166
		ArgOfPericenter 310.423
		MeanAnomaly 218.057
		Period 4.61868
		Epoch 1055.5
		Radius 260

		Type 4
		Mass 3.38717E-005
		Gravity 0.0203826
		Class E
		Mesh "planets\planet_801_ef"
		RotationPeriod 7.811
	END

	CELESTIAL
		Name "Juno"

		SemiMajorAxis 2.6669
		Eccentricity 0.2589
		Inclination 12.972
		AscendingNode 170.133
		ArgOfPericenter 247.948
		MeanAnomaly 119.146
		Period 4.3554
		Epoch 1055.5
		Radius 120

		Type 4
		Mass 3.33012E-006
		Gravity 0.00940734
		Class E
		Mesh "planets\planet_802_ef"
		RotationPeriod 24
	END

	CELESTIAL
		Name "Vesta"

		SemiMajorAxis 2.36708
		Eccentricity 0.089753
		Inclination 7.1346
		AscendingNode 103.951
		ArgOfPericenter 149.459
		MeanAnomaly 104.98
		Period 3.62729
		Epoch 1055.5
		Radius 265

		Type 4
		Mass 3.58636E-005
		Gravity 0.0207745
		Class E
		Mesh "planets\sol_ast_vesta"
		RotationPeriod 5.342
	END

	CELESTIAL
		Name "Cleopatra"

		SemiMajorAxis 2.793
		Eccentricity 0.2535
		Inclination 13.14
		AscendingNode 337.352
		ArgOfPericenter 276.756
		MeanAnomaly 180.595
		Period 4.67
		Epoch -145.5
		Radius 109

		Type 4
		Mass 2.49572E-006
		Gravity 0.008545
		Class E
		Mesh "planets\sol_ast_cleopatra"
		RotationPeriod 5.385
	END

	CELESTIAL
		Name "Chiron"

		SemiMajorAxis 13.6481
		Eccentricity 0.3806
		Inclination 6.937
		AscendingNode 209.381
		ArgOfPericenter 339.483
		MeanAnomaly 13.177
		Period 50.7
		Epoch -745.5
		Radius 90

		Type 4
		Mass 1.4049E-006
		Gravity 0.0070555
		Class E
		Mesh "planets\planet_803_ef"
		RotationPeriod 5.9
	END

	CELESTIAL
		Name "Halley"

		SemiMajorAxis 17.9541
		Eccentricity 0.9673
		Inclination 162.24
		AscendingNode 58.86
		ArgOfPericenter 111.87
		Period 75.7
		Epoch -5065.5
		Radius 7.5

		Type 5
		Mass 8.13018E-010
		Gravity 0.000587959
		Class F
		Mesh "planets\planet_805_ef"
		RotationPeriod 170
	END

	CELESTIAL
		Name "Borrelly"

		SemiMajorAxis 3.61145
		Eccentricity 0.623919
		Inclination 30.3244
		AscendingNode 75.4248
		ArgOfPericenter 353.374
		Period 6.8631
		Epoch 655.5
		Radius 2.5

		Type 5
		Mass 3.01118E-011
		Gravity 0.000195986
		Class F
		Mesh "planets\planet_804_ef"
		RotationPeriod 170
	END

	CELESTIAL
		Name "Ikeya-Zhang"

		SemiMajorAxis 51.2768
		Eccentricity 0.990111
		Inclination 28.1206
		AscendingNode 93.3718
		ArgOfPericenter 34.6666
		Period 367.182
		Epoch 807.478
		Radius 7.5

		Type 5
		Mass 8.13018E-010
		Gravity 0.000587959
		Class F
		Mesh "planets\planet_808_ef"
		RotationPeriod 170
	END
END
